NORAD_CAT_ID,OBJECT_NAME,OBJECT_TYPE,EPOCH,MEAN_MOTION,ECCENTRICITY,INCLINATION,RA_OF_ASC_NODE,ARG_OF_PERICENTER,MEAN_ANOMALY,BSTAR,MEAN_MOTION_DOT,MEAN_MOTION_DDOT,TLE_LINE0,TLE_LINE1,TLE_LINE2,SEMIMAJOR_AXIS,PERIOD,APOGEE,PERIGEE,DECAYED
54183.0,STARLINK-5239,PAYLOAD,2023-06-23 01:56:41,15.08843472,0.0001165,53.2162,130.8324,83.9133,276.1991,0.00010437,1.374e-05,0.0,0 STARLINK-5239,1 54183U 22141AC  23174.08103353  .00001374  00000-0  10437-3 0  9994,2 54183  53.2162 130.8324 0001165  83.9133 276.1991 15.08843472 36548,6917.87,95.437,540.541,538.929,0.0
54183.0,STARLINK-5239,PAYLOAD,2023-06-24 01:47:28,15.08838213,0.000128,53.2171,126.368,107.0552,253.0581,6.4098e-05,7.32e-06,0.0,0 STARLINK-5239,1 54183U 22141AC  23175.07463676  .00000732  00000-0  64098-4 0  9991,2 54183  53.2171 126.3680 0001280 107.0552 253.0581 15.08838213 36696,6917.886,95.438,540.636,538.865,0.0
54183.0,STARLINK-5239,PAYLOAD,2023-06-25 03:13:39,15.08841112,0.0001267,53.217,121.6143,91.7059,268.4078,-1.9384e-05,-5.96e-06,0.0,0 STARLINK-5239,1 54183U 22141AC  23176.13447943 -.00000596  00000-0 -19384-4 0  9996,2 54183  53.2170 121.6143 0001267  91.7059 268.4078 15.08841112 36854,6917.877,95.437,540.618,538.865,0.0
54183.0,STARLINK-5239,PAYLOAD,2023-06-26 03:04:25,15.08848508,0.0001172,53.2166,117.154,94.0193,266.0933,9.1106e-05,1.163e-05,0.0,0 STARLINK-5239,1 54183U 22141AC  23177.12807250  .00001163  00000-0  91106-4 0  9998,2 54183  53.2166 117.1540 0001172  94.0193 266.0933 15.08848508 37008,6917.854,95.437,540.53,538.909,0.0
54183.0,STARLINK-5239,PAYLOAD,2023-06-26 12:36:44,15.08840168,0.0001164,53.2165,115.3694,95.7273,264.3852,2.797e-05,1.57e-06,0.0,0 STARLINK-5239,1 54183U 22141AC  23177.52551811  .00000157  00000-0  27970-4 0  9991,2 54183  53.2165 115.3694 0001164  95.7273 264.3852 15.08840168 37066,6917.88,95.438,540.55,538.94,0.0
54183.0,STARLINK-5239,PAYLOAD,2023-06-27 06:05:59,15.08837276,0.0001237,53.2171,112.1003,98.2878,261.8255,1.6516e-05,-2.5e-07,0.0,0 STARLINK-5239,1 54183U 22141AC  23178.25416453 -.00000025  00000-0  16516-4 0  9993,2 54183  53.2171 112.1003 0001237  98.2878 261.8255 15.08837276 37179,6917.889,95.438,540.609,538.898,0.0
54183.0,STARLINK-5239,PAYLOAD,2023-06-28 04:21:23,15.0884461,0.0001193,53.217,107.9366,99.3734,260.7393,4.2251e-05,3.85e-06,0.0,0 STARLINK-5239,1 54183U 22141AC  23179.18152135  .00000385  00000-0  42251-4 0  9993,2 54183  53.2170 107.9366 0001193  99.3734 260.7393 15.08844610 37313,6917.866,95.437,540.557,538.906,0.0
54183.0,STARLINK-5239,PAYLOAD,2023-06-29 02:36:47,15.0883744,0.0001146,53.2173,103.7729,92.4211,267.6912,6.4432e-05,7.38e-06,0.0,0 STARLINK-5239,1 54183U 22141AC  23180.10888763  .00000738  00000-0  64432-4 0  9997,2 54183  53.2173 103.7729 0001146  92.4211 267.6912 15.08837440 37456,6917.888,95.438,540.546,538.96,0.0
54183.0,STARLINK-5239,PAYLOAD,2023-06-30 11:59:53,15.08840819,9.94e-05,53.2156,97.5268,94.6605,265.4501,7.3071e-06,-1.71e-06,0.0,0 STARLINK-5239,1 54183U 22141AC  23181.49992696 -.00000171  00000-0  73071-5 0  9993,2 54183  53.2156  97.5268 0000994  94.6605 265.4501 15.08840819 37663,6917.878,95.438,540.431,539.055,0.0
54183.0,STARLINK-5239,PAYLOAD,2023-07-01 00:42:59,15.08834771,0.0001148,53.2159,95.1489,91.831,268.2814,-9.8063e-06,-4.44e-06,0.0,0 STARLINK-5239,1 54183U 22141AC  23182.02985323 -.00000444  00000-0 -98063-5 0  9994,2 54183  53.2159  95.1489 0001148  91.8310 268.2814 15.08834771 37746,6917.896,95.438,540.556,538.967,0.0
54183.0,STARLINK-5239,PAYLOAD,2023-07-01 18:12:13,15.08842058,0.0001165,53.216,91.8774,93.1825,266.9301,4.3559e-05,4.06e-06,0.0,0 STARLINK-5239,1 54183U 22141AC  23182.75848784  .00000406  00000-0  43559-4 0  9998,2 54183  53.2160  91.8774 0001165  93.1825 266.9301 15.08842058 37858,6917.874,95.437,540.545,538.933,0.0
54183.0,STARLINK-5239,PAYLOAD,2023-07-02 03:44:31,15.08848809,0.0001204,53.2164,90.0945,85.8071,274.3058,7.8347e-05,9.6e-06,0.0,0 STARLINK-5239,1 54183U 22141AC  23183.15592184  .00000960  00000-0  78347-4 0  9991,2 54183  53.2164  90.0945 0001204  85.8071 274.3058 15.08848809 37917,6917.853,95.437,540.551,538.886,0.0
54183.0,STARLINK-5239,PAYLOAD,2023-07-02 13:16:51,15.08834315,0.0001255,53.2162,88.3093,84.0413,276.0722,7.3106e-05,8.76e-06,0.0,0 STARLINK-5239,1 54183U 22141AC  23183.55337059  .00000876  00000-0  73106-4 0  9997,2 54183  53.2162  88.3093 0001255  84.0413 276.0722 15.08834315 37976,6917.898,95.438,540.631,538.895,0.0
54183.0,STARLINK-5239,PAYLOAD,2023-07-04 01:50:43,15.08842434,0.0001123,53.2166,81.4713,89.9624,270.1496,4.6212e-06,-2.14e-06,0.0,0 STARLINK-5239,1 54183U 22141AC  23185.07688949 -.00000214  00000-0  46212-5 0  9999,2 54183  53.2166  81.4713 0001123  89.9624 270.1496 15.08842434 38206,6917.873,95.437,540.515,538.961,0.0
54183.0,STARLINK-5239,PAYLOAD,2023-07-05 09:38:26,15.08837179,0.0001018,53.2169,75.524,90.2603,269.8506,1.4928e-05,-5e-07,0.0,0 STARLINK-5239,1 54183U 22141AC  23186.40169462 -.00000050  00000-0  14928-4 0  9997,2 54183  53.2169  75.5240 0001018  90.2603 269.8506 15.08837179 38402,6917.889,95.438,540.458,539.05,0.0
54183.0,STARLINK-5239,PAYLOAD,2023-07-06 15:50:45,15.0883959,0.0001079,53.2171,69.8743,84.7564,275.3551,0.00010144,1.327e-05,0.0,0 STARLINK-5239,1 54183U 22141AC  23187.66025396  .00001327  00000-0  10144-3 0  9995,2 54183  53.2171  69.8743 0001079  84.7564 275.3551 15.08839590 38591,6917.882,95.438,540.493,539.0,0.0
54183.0,STARLINK-5239,PAYLOAD,2023-07-08 01:13:51,15.08848168,9.65e-05,53.2166,63.6297,85.5345,274.5757,7.5276e-05,9.11e-06,0.0,0 STARLINK-5239,1 54183U 22141AC  23189.05128925  .00000911  00000-0  75276-4 0  9998,2 54183  53.2166  63.6297 0000965  85.5345 274.5757 15.08848168 38804,6917.855,95.437,540.388,539.053,0.0
54183.0,STARLINK-5239,PAYLOAD,2023-07-08 09:10:47,15.08837358,0.0001321,53.218,62.1427,83.2264,276.8879,-6.1275e-06,-3.85e-06,0.0,0 STARLINK-5239,1 54183U 22141AC  23189.38249934 -.00000385  00000-0 -61275-5 0  9990,2 54183  53.2180  62.1427 0001321  83.2264 276.8879 15.08837358 38855,6917.888,95.438,540.667,538.84,0.0
54183.0,STARLINK-5239,PAYLOAD,2023-07-09 02:40:01,15.08842439,0.000109,53.2183,58.8701,101.4517,258.6597,5.5733e-05,5.99e-06,0.0,0 STARLINK-5239,1 54183U 22141AC  23190.11113380  .00000599  00000-0  55733-4 0  9994,2 54183  53.2183  58.8701 0001090 101.4517 258.6597 15.08842439 38965,6917.873,95.437,540.492,538.984,0.0
54183.0,STARLINK-5239,PAYLOAD,2023-07-09 18:33:53,15.08836171,0.0001044,53.2179,55.8972,97.6888,262.4223,-2.7734e-05,-7.29e-06,0.0,0 STARLINK-5239,1 54183U 22141AC  23190.77354151 -.00000729  00000-0 -27734-4 0  9996,2 54183  53.2179  55.8972 0001044  97.6888 262.4223 15.08836171 39060,6917.892,95.438,540.479,539.035,0.0
54183.0,STARLINK-5239,PAYLOAD,2023-07-10 00:55:26,15.0884248,9.97e-05,53.2179,54.709,90.1203,269.9903,1.7599e-05,-8e-08,0.0,0 STARLINK-5239,1 54183U 22141AC  23191.03849650 -.00000008  00000-0  17599-4 0  9996,2 54183  53.2179  54.7090 0000997  90.1203 269.9903 15.08842480 39106,6917.873,95.437,540.428,539.048,0.0
54183.0,STARLINK-5239,PAYLOAD,2023-07-11 23:01:37,15.08840498,9.03e-05,53.218,46.0851,90.9931,269.1165,5.0873e-05,5.22e-06,0.0,0 STARLINK-5239,1 54183U 22141AC  23192.95945897  .00000522  00000-0  50873-4 0  9990,2 54183  53.2180  46.0851 0000903  90.9931 269.1165 15.08840498 39390,6917.879,95.438,540.369,539.119,0.0
54183.0,STARLINK-5239,PAYLOAD,2023-07-13 06:49:20,15.08840708,0.0001131,53.2177,40.1357,78.2615,281.8504,4.8729e-06,-2.1e-06,0.0,0 STARLINK-5239,1 54183U 22141AC  23194.28426048 -.00000210  00000-0  48729-5 0  9993,2 54183  53.2177  40.1357 0001131  78.2615 281.8504 15.08840708 39598,6917.878,95.438,540.526,538.961,0.0
54183.0,STARLINK-5239,PAYLOAD,2023-07-13 17:57:02,15.0883568,0.0001203,53.2176,38.0544,79.7914,280.3214,-1.9968e-05,-6.06e-06,0.0,0 STARLINK-5239,1 54183U 22141AC  23194.74794676 -.00000606  00000-0 -19968-4 0  9991,2 54183  53.2176  38.0544 0001203  79.7914 280.3214 15.08835680 39662,6917.894,95.438,540.591,538.926,0.0
54183.0,STARLINK-5239,PAYLOAD,2023-07-14 06:40:07,15.08841268,9.82e-05,53.218,35.6768,86.066,274.0444,2.6329e-05,1.31e-06,0.0,0 STARLINK-5239,1 54183U 22141AC  23195.27786200  .00000131  00000-0  26329-4 0  9994,2 54183  53.2180  35.6768 0000982  86.0660 274.0444 15.08841268 39743,6917.877,95.437,540.421,539.062,0.0
54183.0,STARLINK-5239,PAYLOAD,2023-07-14 20:58:34,15.08850211,9.82e-05,53.2178,33.0005,85.4949,274.6155,0.00012391,1.685e-05,0.0,0 STARLINK-5239,1 54183U 22141AC  23195.87401406  .00001685  00000-0  12391-3 0  9990,2 54183  53.2178  33.0005 0000982  85.4949 274.6155 15.08850211 39832,6917.849,95.437,540.394,539.035,0.0
54183.0,STARLINK-5239,PAYLOAD,2023-07-15 19:13:59,15.08837599,9.04e-05,53.2176,28.8379,86.3686,273.741,0.00011287,1.509e-05,0.0,0 STARLINK-5239,1 54183U 22141AC  23196.80138107  .00001509  00000-0  11287-3 0  9997,2 54183  53.2176  28.8379 0000904  86.3686 273.7410 15.08837599 39971,6917.888,95.438,540.378,539.127,0.0
54183.0,STARLINK-5239,PAYLOAD,2023-07-16 22:15:32,15.08840406,0.0001041,53.2177,23.7821,87.5118,272.5993,-1.4814e-05,-5.24e-06,0.0,0 STARLINK-5239,1 54183U 22141AC  23197.92746513 -.00000524  00000-0 -14814-4 0  9995,2 54183  53.2177  23.7821 0001041  87.5118 272.5993 15.08840406 40149,6917.879,95.438,540.464,539.024,0.0
54183.0,STARLINK-5239,PAYLOAD,2023-07-17 18:55:33,15.08845562,9.23e-05,53.2174,19.9165,85.5777,274.532,0.00012802,1.751e-05,0.0,0 STARLINK-5239,1 54183U 22141AC  23198.78857779  .00001751  00000-0  12802-3 0  9992,2 54183  53.2174  19.9165 0000923  85.5777 274.5320 15.08845562 40279,6917.863,95.437,540.367,539.09,0.0
54183.0,STARLINK-5239,PAYLOAD,2023-07-18 15:35:34,15.08836891,8.95e-05,53.2182,16.0509,86.0475,274.062,0.00011142,1.486e-05,0.0,0 STARLINK-5239,1 54183U 22141AC  23199.64970600  .00001486  00000-0  11142-3 0  9998,2 54183  53.2182  16.0509 0000895  86.0475 274.0620 15.08836891 40405,6917.89,95.438,540.374,539.136,0.0
